{"fetched_at":"2026-07-12T07:15:18.323Z","source":"https://celestrak.org/NORAD/elements/gp.php?GROUP=kuiper&FORMAT=JSON","constellation":"kuiper","records":[{"OBJECT_NAME":"KUIPER-00140","OBJECT_ID":"2025-228U","EPOCH":"2026-07-11T22:23:03.881184","CLASSIFICATION_TYPE":"U","MEAN_MOTION":14.79931415,"ECCENTRICITY":0.00007027,"INCLINATION":51.8972,"RA_OF_ASC_NODE":156.2602,"ARG_OF_PERICENTER":77.1462,"MEAN_ANOMALY":282.9578,"EPHEMERIS_TYPE":0,"NORAD_CAT_ID":65965,"ELEMENT_SET_NO":999,"REV_AT_EPOCH":4183,"BSTAR":0.000052554922,"MEAN_MOTION_DOT":0.0000018,"MEAN_MOTION_DDOT":0},{"OBJECT_NAME":"KUIPER-00141","OBJECT_ID":"2025-228V","EPOCH":"2026-07-11T06:18:25.803360","CLASSIFICATION_TYPE":"U","MEAN_MOTION":14.79929535,"ECCENTRICITY":0.0000743,"INCLINATION":51.902,"RA_OF_ASC_NODE":154.2771,"ARG_OF_PERICENTER":72.616,"MEAN_ANOMALY":287.4884,"EPHEMERIS_TYPE":0,"NORAD_CAT_ID":65966,"ELEMENT_SET_NO":999,"REV_AT_EPOCH":4180,"BSTAR":0.00021858445,"MEAN_MOTION_DOT":0.00001445,"MEAN_MOTION_DDOT":0},{"OBJECT_NAME":"KUIPER-00146","OBJECT_ID":"2025-228W","EPOCH":"2026-07-10T08:21:46.061856","CLASSIFICATION_TYPE":"U","MEAN_MOTION":14.79929747,"ECCENTRICITY":0.00007547,"INCLINATION":51.9012,"RA_OF_ASC_NODE":160.8304,"ARG_OF_PERICENTER":60.3221,"MEAN_ANOMALY":299.7816,"EPHEMERIS_TYPE":0,"NORAD_CAT_ID":65967,"ELEMENT_SET_NO":999,"REV_AT_EPOCH":4163,"BSTAR":0.00015675242,"MEAN_MOTION_DOT":0.00000974,"MEAN_MOTION_DDOT":0},{"OBJECT_NAME":"KUIPER-00149","OBJECT_ID":"2025-228X","EPOCH":"2026-07-11T20:57:28.775808","CLASSIFICATION_TYPE":"U","MEAN_MOTION":14.79915633,"ECCENTRICITY":0.00007814,"INCLINATION":51.8996,"RA_OF_ASC_NODE":148.974,"ARG_OF_PERICENTER":82.9864,"MEAN_ANOMALY":277.1187,"EPHEMERIS_TYPE":0,"NORAD_CAT_ID":65968,"ELEMENT_SET_NO":999,"REV_AT_EPOCH":4193,"BSTAR":0.00022598505,"MEAN_MOTION_DOT":0.00001501,"MEAN_MOTION_DDOT":0},{"OBJECT_NAME":"KUIPER-00154","OBJECT_ID":"2025-228Y","EPOCH":"2026-07-11T05:37:32.651616","CLASSIFICATION_TYPE":"U","MEAN_MOTION":14.79928101,"ECCENTRICITY":0.00007694,"INCLINATION":51.8982,"RA_OF_ASC_NODE":149.2897,"ARG_OF_PERICENTER":71.5,"MEAN_ANOMALY":288.6046,"EPHEMERIS_TYPE":0,"NORAD_CAT_ID":65969,"ELEMENT_SET_NO":999,"REV_AT_EPOCH":4187,"BSTAR":-0.000043858446,"MEAN_MOTION_DOT":-0.00000555,"MEAN_MOTION_DDOT":0},{"OBJECT_NAME":"KUIPER-00157","OBJECT_ID":"2025-228Z","EPOCH":"2026-07-11T21:37:53.450976","CLASSIFICATION_TYPE":"U","MEAN_MOTION":14.81193297,"ECCENTRICITY":0.00010284,"INCLINATION":51.9009,"RA_OF_ASC_NODE":148.9202,"ARG_OF_PERICENTER":42.4788,"MEAN_ANOMALY":317.6254,"EPHEMERIS_TYPE":0,"NORAD_CAT_ID":65970,"ELEMENT_SET_NO":999,"REV_AT_EPOCH":4193,"BSTAR":0.00023063787,"MEAN_MOTION_DOT":0.00001589,"MEAN_MOTION_DDOT":0},{"OBJECT_NAME":"KUIPER-00144","OBJECT_ID":"2025-301A","EPOCH":"2026-07-11T11:39:30.942720","CLASSIFICATION_TYPE":"U","MEAN_MOTION":14.7993421,"ECCENTRICITY":0.000032,"INCLINATION":51.9008,"RA_OF_ASC_NODE":228.193,"ARG_OF_PERICENTER":86.352,"MEAN_ANOMALY":273.7479,"EPHEMERIS_TYPE":0,"NORAD_CAT_ID":67133,"ELEMENT_SET_NO":999,"REV_AT_EPOCH":3220,"BSTAR":0.00019140867,"MEAN_MOTION_DOT":0.00001238,"MEAN_MOTION_DDOT":0},{"OBJECT_NAME":"KUIPER-00164","OBJECT_ID":"2025-301B","EPOCH":"2026-07-11T19:01:59.748096","CLASSIFICATION_TYPE":"U","MEAN_MOTION":14.76500157,"ECCENTRICITY":0.00017032,"INCLINATION":51.9053,"RA_OF_ASC_NODE":239.1667,"ARG_OF_PERICENTER":330.8066,"MEAN_ANOMALY":29.2799,"EPHEMERIS_TYPE":0,"NORAD_CAT_ID":67134,"ELEMENT_SET_NO":999,"REV_AT_EPOCH":3225,"BSTAR":0.00015247288,"MEAN_MOTION_DOT":0.00000857,"MEAN_MOTION_DDOT":0},{"OBJECT_NAME":"KUIPER-00175","OBJECT_ID":"2025-301C","EPOCH":"2026-07-11T22:00:03.000096","CLASSIFICATION_TYPE":"U","MEAN_MOTION":14.80670705,"ECCENTRICITY":0.00004258,"INCLINATION":51.8978,"RA_OF_ASC_NODE":221.2521,"ARG_OF_PERICENTER":73.2875,"MEAN_ANOMALY":212.994,"EPHEMERIS_TYPE":0,"NORAD_CAT_ID":67135,"ELEMENT_SET_NO":999,"REV_AT_EPOCH":558,"BSTAR":-0.0026886402,"MEAN_MOTION_DOT":-0.00021017,"MEAN_MOTION_DDOT":0},{"OBJECT_NAME":"KUIPER-00179","OBJECT_ID":"2025-301D","EPOCH":"2026-07-11T03:17:46.666752","CLASSIFICATION_TYPE":"U","MEAN_MOTION":14.79927791,"ECCENTRICITY":0.0000466,"INCLINATION":51.8962,"RA_OF_ASC_NODE":239.7045,"ARG_OF_PERICENTER":87.0454,"MEAN_ANOMALY":273.0562,"EPHEMERIS_TYPE":0,"NORAD_CAT_ID":67136,"ELEMENT_SET_NO":999,"REV_AT_EPOCH":3219,"BSTAR":0.00012421117,"MEAN_MOTION_DOT":0.00000726,"MEAN_MOTION_DDOT":0},{"OBJECT_NAME":"KUIPER-00181","OBJECT_ID":"2025-301E","EPOCH":"2026-07-11T14:19:02.237088","CLASSIFICATION_TYPE":"U","MEAN_MOTION":14.79976033,"ECCENTRICITY":0.00012295,"INCLINATION":51.9024,"RA_OF_ASC_NODE":250.2116,"ARG_OF_PERICENTER":61.2393,"MEAN_ANOMALY":298.8693,"EPHEMERIS_TYPE":0,"NORAD_CAT_ID":67137,"ELEMENT_SET_NO":999,"REV_AT_EPOCH":3206,"BSTAR":0.00020309595,"MEAN_MOTION_DOT":0.00001329,"MEAN_MOTION_DDOT":0},{"OBJECT_NAME":"KUIPER-00183","OBJECT_ID":"2025-301F","EPOCH":"2026-07-11T10:30:49.807872","CLASSIFICATION_TYPE":"U","MEAN_MOTION":14.92761892,"ECCENTRICITY":0.00095526,"INCLINATION":51.8969,"RA_OF_ASC_NODE":223.5205,"ARG_OF_PERICENTER":113.5034,"MEAN_ANOMALY":246.6939,"EPHEMERIS_TYPE":0,"NORAD_CAT_ID":67138,"ELEMENT_SET_NO":999,"REV_AT_EPOCH":3243,"BSTAR":0.00018297289,"MEAN_MOTION_DOT":0.00001661,"MEAN_MOTION_DDOT":0},{"OBJECT_NAME":"KUIPER-00184","OBJECT_ID":"2025-301G","EPOCH":"2026-07-11T10:43:06.073248","CLASSIFICATION_TYPE":"U","MEAN_MOTION":14.79929871,"ECCENTRICITY":0.00002279,"INCLINATION":51.8982,"RA_OF_ASC_NODE":233.3405,"ARG_OF_PERICENTER":86.303,"MEAN_ANOMALY":273.7959,"EPHEMERIS_TYPE":0,"NORAD_CAT_ID":67139,"ELEMENT_SET_NO":999,"REV_AT_EPOCH":3240,"BSTAR":0.00020126799,"MEAN_MOTION_DOT":0.00001314,"MEAN_MOTION_DDOT":0},{"OBJECT_NAME":"KUIPER-00186","OBJECT_ID":"2025-301H","EPOCH":"2026-07-11T03:46:59.073888","CLASSIFICATION_TYPE":"U","MEAN_MOTION":14.79933263,"ECCENTRICITY":0.00011042,"INCLINATION":51.9011,"RA_OF_ASC_NODE":252.1644,"ARG_OF_PERICENTER":85.1546,"MEAN_ANOMALY":274.9542,"EPHEMERIS_TYPE":0,"NORAD_CAT_ID":67140,"ELEMENT_SET_NO":999,"REV_AT_EPOCH":3184,"BSTAR":0.00021646538,"MEAN_MOTION_DOT":0.00001429,"MEAN_MOTION_DDOT":0},{"OBJECT_NAME":"KUIPER-00187","OBJECT_ID":"2025-301J","EPOCH":"2026-07-10T03:24:28.164096","CLASSIFICATION_TYPE":"U","MEAN_MOTION":14.79921052,"ECCENTRICITY":0.00005484,"INCLINATION":51.9024,"RA_OF_ASC_NODE":259.1774,"ARG_OF_PERICENTER":92.4678,"MEAN_ANOMALY":267.6348,"EPHEMERIS_TYPE":0,"NORAD_CAT_ID":67141,"ELEMENT_SET_NO":999,"REV_AT_EPOCH":3165,"BSTAR":0.00016377626,"MEAN_MOTION_DOT":0.00001027,"MEAN_MOTION_DDOT":0},{"OBJECT_NAME":"KUIPER-00188","OBJECT_ID":"2025-301K","EPOCH":"2026-07-11T10:13:54.913728","CLASSIFICATION_TYPE":"U","MEAN_MOTION":14.7993532,"ECCENTRICITY":0.00008145,"INCLINATION":51.898,"RA_OF_ASC_NODE":221.0809,"ARG_OF_PERICENTER":109.5722,"MEAN_ANOMALY":250.5329,"EPHEMERIS_TYPE":0,"NORAD_CAT_ID":67142,"ELEMENT_SET_NO":999,"REV_AT_EPOCH":3229,"BSTAR":0.00016125432,"MEAN_MOTION_DOT":0.00001008,"MEAN_MOTION_DDOT":0}]}
